AMC-3                   
1 24936U 97050A   26066.37961633 -.00000263  00000+0  00000+0 0  9993
2 24936   7.8967  65.2390 0003535 293.7746 230.7340  1.00272815 51418
NSS-11                  
1 26554U 00059A   26066.56502869  .00000024  00000+0  00000+0 0  9991
2 26554   1.8638  82.6324 0003187 274.8018 187.2438  1.00273135 40272
AMC-6                   
1 26580U 00067A   26066.52336347  .00000087  00000+0  00000+0 0  9990
2 26580   0.0456 329.4347 0003092  21.6887 227.4517  1.00273323 92871
AMC-11                  
1 28252U 04017A   26066.27268955 -.00000052  00000+0  00000+0 0  9991
2 28252   0.0485  79.1330 0003235 276.7834 156.1303  1.00272929 79840
AMC-15                  
1 28446U 04041A   26066.34045059 -.00000090  00000+0  00000+0 0  9991
2 28446   0.0491 302.7787 0002507  30.4814 209.2876  1.00272461 78280
NSS-10                  
1 28526U 05003A   26066.28733629 -.00000253  00000+0  00000+0 0  9990
2 28526   6.1945  71.6844 0003224 271.1103 248.1954  1.00271993 52132
ASTRA 1KR               
1 29055U 06012A   26066.29842968  .00000117  00000+0  00000+0 0  9995
2 29055   0.2109  81.8775 0003352 255.3650 314.1725  1.00270828 44672
ASTRA 1L                
1 31306U 07016A   26066.43517022 -.00000186  00000+0  00000+0 0  9995
2 31306   1.0583  82.3967 0003421 282.6718 292.2684  1.00271010 43968
ASTRA 4A                
1 32299U 07057A   26066.22432933  .00000030  00000+0  00000+0 0  9993
2 32299   0.0476 297.6138 0002425  53.3800 259.4942  1.00271325 50621
ASTRA 1M                
1 33436U 08057A   26066.29842968  .00000118  00000+0  00000+0 0  9995
2 33436   0.0408  63.4661 0000931 357.8457 230.3094  1.00270126 44717
NSS-9                   
1 33749U 09008A   26066.47753184  .00000070  00000+0  00000+0 0  9997
2 33749   0.9984  83.6751 0002206 256.8915 179.5967  1.00270529 62507
SES-7 (PROTOSTAR 2)     
1 34941U 09027A   26066.58725389 -.00000346  00000+0  00000+0 0  9998
2 34941   0.0180  85.8657 0001297 229.6168 169.4599  1.00270271 61611
NSS-12                  
1 36032U 09058A   26066.60889162  .00000070  00000+0  00000+0 0  9991
2 36032   0.0371 340.3708 0004965 352.8092 108.3182  1.00272209 59892
SES-1                   
1 36516U 10016A   26066.33926354 -.00000116  00000+0  00000+0 0  9991
2 36516   0.0468 298.0114 0002467  44.3381 203.8314  1.00272605 58016
ASTRA 3B                
1 36581U 10021A   26066.22805602  .00000135  00000+0  00000+0 0  9999
2 36581   1.2048  84.8828 0003145 282.7094 262.9383  1.00273022 57847
SES-3                   
1 37748U 11035A   26066.33982754 -.00000103  00000+0  00000+0 0  9993
2 37748   1.0631  84.2698 0003590 271.3928 188.7140  1.00272413 53577
ASTRA 1N                
1 37775U 11041A   26066.29842968  .00000117  00000+0  00000+0 0  9991
2 37775   0.0715  26.2362 0004375 352.8171 272.5727  1.00270333 43504
SES-2                   
1 37809U 11049A   26066.37405863 -.00000197  00000+0  00000+0 0  9994
2 37809   0.0267  75.5117 0002899 273.9212 223.2934  1.00271713 52941
QUETZSAT 1              
1 37826U 11054A   26066.34628199 -.00000243  00000+0  00000+0 0  9997
2 37826   0.0472 293.1442 0002707  60.4459 219.1194  1.00272562 48857
SES-4                   
1 38087U 12007A   26066.43517022 -.00000169  00000+0  00000+0 0  9995
2 38087   0.0338  65.5295 0002572 281.2520 313.0308  1.00278702 51203
SES-5                   
1 38652U 12036A   26066.26572604  .00000031  00000+0  00000+0 0  9990
2 38652   0.0605 309.0724 0001903  34.6011 281.9281  1.00271655 43432
ASTRA 2F                
1 38778U 12051A   26066.30033635  .00000148  00000+0  00000+0 0  9996
2 38778   0.0902 259.6407 0002664  18.2220  23.4704  1.00269022 40110
SES-6                   
1 39172U 13026A   26066.29308617 -.00000263  00000+0  00000+0 0  9990
2 39172   0.0597 290.9562 0001870  69.8943 229.1397  1.00271430 46701
O3B FM5                 
1 39188U 13031A   26066.09595884 -.00000026  00000+0  00000+0 0  9992
2 39188   0.0982  13.3169 0003324 323.7008  22.9625  5.00116497231935
O3B FM4                 
1 39189U 13031B   26065.61544718 -.00000026  00000+0  00000+0 0  9990
2 39189   0.0552 345.1128 0005085   9.6879   5.1888  5.00115248231917
O3B FM2                 
1 39190U 13031C   26066.08090852 -.00000026  00000+0  00000+0 0  9999
2 39190   0.0561 338.8755 0002814   5.7081  15.4029  5.00116011232004
O3B PFM                 
1 39191U 13031D   26065.09556941 -.00000026  00000+0  00000+0 0  9996
2 39191   0.0668   7.2787 0005147 352.3292   0.3862  5.00115906231517
ASTRA 2E                
1 39285U 13056A   26066.30033635  .00000148  00000+0  00000+0 0  9996
2 39285   0.0740  35.6558 0002182 305.8171 320.1315  1.00273478 45398
SES-8                   
1 39460U 13071A   26066.61398980 -.00000271  00000+0  00000+0 0  9997
2 39460   0.0500 270.4016 0001795 108.1724 102.7744  1.00272149 43428
ASTRA 5B                
1 39617U 14011B   26066.25461596  .00000135  00000+0  00000+0 0  9998
2 39617   0.0851 301.3900 0003996  29.0822 309.6237  1.00272553 43640
O3B FM3                 
1 40079U 14038A   26066.16164578 -.00000026  00000+0  00000+0 0  9991
2 40079   0.0530 353.4863 0000643  57.4770 309.0375  5.00115584207943
O3B FM7                 
1 40080U 14038B   26061.31035470 -.00000029  00000+0  00000+0 0  9996
2 40080   0.0588 348.9474 0004488 339.4059  31.6123  5.00115622212532
O3B FM6                 
1 40081U 14038C   26066.13473921 -.00000026  00000+0  00000+0 0  9996
2 40081   0.0549 351.2755 0002661 351.9504  16.7604  5.00115738212721
O3B FM8                 
1 40082U 14038D   26065.38849377 -.00000026  00000+0  00000+0 0  9995
2 40082   0.0558 350.6402 0002654 356.7405  12.6073  5.00116014212801
O3B FM10                
1 40348U 14083A   26066.01522592 -.00000026  00000+0  00000+0 0  9998
2 40348   0.0432 347.7636 0002685 356.5565  15.6666  5.00115262204785
O3B FM11                
1 40349U 14083B   26066.02794664 -.00000026  00000+0  00000+0 0  9991
2 40349   0.0568   0.4081 0003130 333.8888  25.6826  5.00115630204806
O3B FM12                
1 40350U 14083C   26062.45701119 -.00000028  00000+0  00000+0 0  9991
2 40350   0.0560 359.7796 0002643 337.6957  22.5061  5.00115945204637
O3B FM9                 
1 40351U 14083D   26065.88197959 -.00000026  00000+0  00000+0 0  9991
2 40351   0.0579   0.6785 0002732 343.7503  15.5577  5.00115924204958
ASTRA 2G                
1 40364U 14089A   26066.30024969  .00000148  00000+0  00000+0 0  9993
2 40364   0.0549 329.1569 0004218  61.9271 270.1902  1.00273869 40947
SES-9                   
1 41380U 16013A   26066.34003109 -.00000347  00000+0  00000+0 0  9990
2 41380   0.0407 310.1603 0001663  91.0303 354.5504  1.00272104 36412
SES-10                  
1 42432U 17017A   26066.37961633 -.00000274  00000+0  00000+0 0  9991
2 42432   0.0199  74.5890 0002457 280.6126 239.6379  1.00271531 32736
SES-15                  
1 42709U 17026A   26066.52336347  .00000058  00000+0  00000+0 0  9992
2 42709   0.0427 318.1999 0001016  33.8962 232.3748  1.00274261  6419
SES-11 (ECHOSTAR 105)   
1 42967U 17063A   26066.36850411 -.00000091  00000+0  00000+0 0  9992
2 42967   0.0280  64.9902 0002548 279.5374 208.2656  1.00268601 30709
SES-14                  
1 43175U 18012B   26066.29350282 -.00000280  00000+0  00000+0 0  9992
2 43175   0.0184  94.6496 0000835 269.3063 219.1933  1.00270422  6000
O3B FM15                
1 43231U 18024A   26066.14863402 -.00000026  00000+0  00000+0 0  9993
2 43231   0.0487   0.9511 0002685 341.2868  17.7477  5.00115721145929
O3B FM16                
1 43232U 18024B   26065.60133621 -.00000026  00000+0  00000+0 0  9997
2 43232   0.0450   2.8606 0002813 339.2368  17.8875  5.00115911145813
O3B FM14                
1 43233U 18024C   26066.24176247 -.00000026  00000+0  00000+0 0  9990
2 43233   0.0435   1.7993 0002845 344.8872  13.3011  5.00115698145849
O3B FM13                
1 43234U 18024D   26062.10991137 -.00000028  00000+0  00000+0 0  9997
2 43234   0.0485 331.6373 0004295 331.6147  56.6997  5.00115687145742
SES-12                  
1 43488U 18049A   26066.02828845 -.00000272  00000+0  00000+0 0  9996
2 43488   0.0180  84.2897 0001821 220.4205 325.1973  1.00270171 28394
O3B FM20                
1 44112U 19020A   26066.06789383 -.00000026  00000+0  00000+0 0  9995
2 44112   0.0518 359.7050 0002796 334.4568  25.8192  5.00115512126460
O3B FM19                
1 44113U 19020B   26065.89512278 -.00000026  00000+0  00000+0 0  9993
2 44113   0.0567 352.2118 0004311 343.7320  24.0309  5.00115814126323
O3B FM17                
1 44114U 19020C   26066.17507053 -.00000026  00000+0  00000+0 0  9991
2 44114   0.0391 340.4875 0002681   0.5384  18.9591  5.00115488126416
O3B FM18                
1 44115U 19020D   26062.52332968 -.00000028  00000+0  00000+0 0  9990
2 44115   0.0519   0.0145 0002751 341.7220  18.2467  5.00115242126362
SES-17                  
1 49332U 21095A   26066.13878894 -.00000274  00000+0  00000+0 0  9998
2 49332   0.0257  64.7620 0001010 290.7779 152.1602  1.00269936 16836
SES-22                  
1 52933U 22071A   26066.51225376  .00000000  00000+0  00000+0 0  9993
2 52933   0.0174 150.2609 0001029 198.4027 221.9670  1.00269907  6504
SES-20                  
1 53960U 22123A   26066.33982818 -.00000103  00000+0  00000+0 0  9998
2 53960   0.0161 108.5204 0001610 319.2676 116.4803  1.00272026 12517
SES-21                  
1 53961U 22123B   26066.52336347  .00000068  00000+0  00000+0 0  9999
2 53961   0.0267  68.5386 0001045 272.7431 241.3568  1.00270929  6198
O3B MPOWER F1           
1 54755U 22174A   26066.27225620 -.00000026  00000+0  00000+0 0  9995
2 54755   0.0639 350.7406 0005215  12.8947 128.1243  5.00103076 60262
O3B MPOWER F2           
1 54756U 22174B   26062.53384886 -.00000028  00000+0  00000+0 0  9993
2 54756   0.1272 326.2177 0046125  76.0907 318.0389  5.00690325 60150
SES-18                  
1 55970U 23038A   26066.33982927 -.00000103  00000+0  00000+0 0  9998
2 55970   0.0527 271.8063 0002274  40.7855 231.6822  1.00272277 11085
SES-19                  
1 55971U 23038B   26066.51225376  .00000086  00000+0  00000+0 0  9996
2 55971   0.0466 290.6169 0001792  63.2302 220.8678  1.00271254 11066
O3B MPOWER F4           
1 56367U 23059A   26048.24074746 -.00000015  00000+0  00000+0 0  9995
2 56367   0.0593   7.9241 0006460 334.3658  17.6828  5.00119607 52601
O3B MPOWER F5           
1 58346U 23175A   26066.16431178 -.00000026  00000+0  00000+0 0  9992
2 58346   0.0402   3.5066 0004145 347.7177   8.7635  5.00115759 44330
ASTRA 1P (SES-24)       
1 60086U 24115A   26066.29842968  .00000117  00000+0  00000+0 0  9998
2 60086   0.0547 341.2315 0004900 340.4940 329.9032  1.00264763  6175
O3B MPOWER F7           
1 62362U 24244A   26066.53109077 -.00000025  00000+0  00000+0 0  9993
2 62362   0.0701   4.5205 0006130 340.7538  14.7031  5.00115235 21444
O3B MPOWER F8           
1 62363U 24244B   26066.09829067 -.00000026  00000+0  00000+0 0  9994
2 62363   0.0514 316.4457 0006607  21.9987  21.5228  5.00115760 15761
